0 THOR ABLESTAR DEB
1 00353U 61015DT  13281.38642027  .00006355  00000-0  11083-2 0  7050
2 00353 066.5140 267.4295 0032294 327.1737 032.7372 14.68292572711672
0 THOR ABLESTAR DEB
1 00353U 61015DT  13282.40814947  .00011101  00000-0  19191-2 0  7060
2 00353 066.5140 264.5657 0032306 326.5167 033.3906 14.68319221711824
0 THOR ABLESTAR DEB
1 00353U 61015DT  13283.42986210  .00010125  00000-0  17518-2 0  7073
2 00353 066.5138 261.7020 0032384 325.9034 034.0001 14.68332883711975
0 THOR ABLESTAR DEB
1 00353U 61015DT  13286.08626492  .00008546  00000-0  14804-2 0  7092
2 00353 066.5132 254.2550 0032532 324.3145 035.5795 14.68372434712361
0 THOR ABLESTAR DEB
1 00353U 61015DT  13287.38038287  .00009172  00000-0  15867-2 0  7103
2 00353 066.5132 250.6265 0032594 323.6310 036.2591 14.68389917712555
0 THOR ABLESTAR DEB
1 00353U 61015DT  13289.08313762  .00012017  00000-0  20703-2 0  7114
2 00353 066.5137 245.8522 0032616 322.5580 037.3263 14.68427899712802
0 THOR ABLESTAR DEB
1 00353U 61015DT  13291.12639138  .00010666  00000-0  18383-2 0  7120
2 00353 066.5144 240.1234 0032728 321.2763 038.6007 14.68467243713102
0 THOR ABLESTAR DEB
1 00353U 61015DT  13292.35231762  .00009959  00000-0  17170-2 0  7134
2 00353 066.5145 236.6860 0032704 320.6179 039.2559 14.68489423713288
0 THOR ABLESTAR DEB
1 00353U 61015DT  13294.12306502  .00011407  00000-0  19621-2 0  7141
2 00353 066.5145 231.7214 0032759 319.5999 040.2684 14.68520709713547
0 THOR ABLESTAR DEB
1 00353U 61015DT  13295.21273740  .00011914  00000-0  20473-2 0  7150
2 00353 066.5143 228.6662 0032791 319.0078 040.8574 14.68539738713700
